#dP2019  7 19  0  0  0.00000000     289 d+D   IGS14 FIT AIUB
## 2062 432000.00000000   300.00000000 58683 0.0000000000000
+   93   G01G02G03G04G05G06G07G08G09G10G11G12G13G14G15G16G17
+        G18G19G20G21G22G23G24G25G26G27G28G29G30G31G32R01R02
+        R03R04R05R07R08R09R10R11R12R13R14R15R16R17R18R19R20
+        R21R22R23R24R26E01E02E03E04E05E07E08E09E11E12E13E14
+        E15E18E19E21E24E25E26E27E30E31E33E36C06C07C08C09C10
+        C11C12C13C14C16J01J02J03  0  0  0  0  0  0  0  0  0
++         5  5  5 10  5  5  5  5  5  5  5  5  5  5  5  5  5
++         5  5  5  5  5  5  5  5  5  5  5  5  5  5  5  6  5
++         5  5  5  5  5  5  5  5  5  5  5  5  5  5  5  5  5
++         5  5  5  5  5  5  5  5  5  5  5  5  5  5  5  5  5
++         5  5  5  5  5  5  5  5  5  5  5  5  5  5  5  5  5
++         5  5  5  5  5  5  5 10  0  0  0  0  0  0  0  0  0
%c M  cc GPS ccc cccc cccc cccc cccc ccccc ccccc ccccc ccccc
%c cc cc ccc ccc cccc cccc cccc cccc ccccc ccccc ccccc ccccc
%f  1.2500000  1.025000000  0.00000000000  0.000000000000000
%f  0.0000000  0.000000000  0.00000000000  0.000000000000000
%i    0    0    0    0      0      0      0      0         0
%i    0    0    0    0      0      0      0      0         0
/* CODE MGEX orbits and clocks                                                  
/* of DOY 19200                                                                 
/*                                                                              
/* PCV:IGS14      OL/AL:FES2004  NONE     YN ORB:CoN CLK:CoN                    
*  2019  7 19  2  0  0.00000000
PG01 -13609.570162  18441.751571  12941.489272    -71.225652
PG02  14722.601319   3139.643513 -21279.098976   -263.301092
PG03 -20875.235521  13165.788947  -9742.788177    180.300820
PG04 -22882.142480 -12847.776019   5404.190592      2.551403
PG05  24957.002410   -960.440376  -9462.524041     -0.044220
PG06   8002.276488  18031.405855 -17728.056298    145.407396
PG07  -6025.849019  25589.965488    780.403587    -67.206997
PG08 -17710.136405   2069.164361  19781.640033   -151.722501
PG09    860.537696  18908.294121 -18667.804342    367.782819
PG10  -7685.060219 -13423.379546  21672.898659    -20.986566
PG11 -11109.847985  15431.829406  18113.980802   -557.710333
PG12  23115.995961 -10445.540012  -7793.799634    222.554733
PG13  20233.252821   8568.339364  14851.442041    -53.956263
PG14 -18627.825528 -18961.337542  -1745.171811    -70.860502
PG15  17782.076665  -4255.803782  19119.287423   -299.987540
PG16 -24978.835983  -1557.864684  -9703.619004    -57.405740
PG17  14456.072187  21527.493600   6364.968951     91.157736
PG18 -15282.362256  10601.829993  18413.853371     70.992044
PG19  17859.500538  19599.484989  -1184.421671   -292.356754
PG20   2067.450882 -17132.366033  20048.510103    526.032441
PG21    416.030238 -26148.717428   5907.377434   -152.148458
PG22 -24221.154370  10584.061135  -1838.566962   -732.899575
PG23 -12063.693432   9821.816023 -21203.896989   -176.567788
PG24  14293.722719 -16180.573704  15090.427317    -68.986878
PG25  12123.887621 -15998.045752 -17475.820050     -1.905208
PG26 -18827.269189  -7018.242987 -17477.340657    254.633447
PG27 -21835.409782  -9969.323753  11579.595418   -188.941786
PG28   6219.786039  13967.077777  22315.762446    766.265317
PG29   3273.673846 -16551.704284 -20546.435957    147.821444
PG30   1291.502185  24129.664538  10829.298944     -1.882888
PG31  -9104.123441 -16347.408760 -18675.526061     23.357691
PG32 -15858.140432 -20580.339798   5880.494932      2.645393
PR01   6334.896338  11896.099621 -21654.072171     46.889108
PR02  23035.963536   8336.067127  -6970.879008    378.990660
PR03  23238.352270   -201.199527  10510.679768     -1.490426
PR04   9397.349604  -8757.017298  22055.434198    314.307816
PR05  -8815.214262 -11855.331301  20813.855288     32.140896
PR07 -23082.898177    376.926287 -10851.029826    -23.657932
PR08 -10224.430958   8418.707853 -21745.496283     16.659844
PR09 -13162.249585  -1243.732610 -21784.701340     80.816352
PR10 -18753.972774  11585.421179 -12772.839913     54.703519
PR11 -14638.936575  20141.432033   5428.974058    -73.155080
PR12  -2769.037467  16609.432087  19196.238645     44.866399
PR13  11663.204266   2832.985769  22495.354101    -26.098619
PR14  18800.415066 -11880.490792  12526.330228     41.067562
PR15  15206.703914 -19974.938563  -4513.175103    103.127565
PR16   2171.021690 -16590.586250 -19229.491297      7.324513
PR17  10877.687352   -705.377138 -23061.627577    244.762885
PR18   3279.214785 -17298.258805 -18474.583329      0.714780
PR19  -5369.331102 -24606.734894  -4037.946622    -42.970566
PR20 -11884.917530 -17207.742006  14637.118378   -384.751820
PR21 -10572.926568   1481.927859  23158.761299    -60.660689
PR22  -1862.956123  19151.636118  16674.466687    -29.080743
PR23   8345.926688  24050.995829  -1628.317261    241.549773
PR24  12449.301365  15375.377505 -16125.845278   -182.788346
PR26 -11772.888346 -19084.911045  12139.010450    -15.741446
PE01 -14913.818850  21627.792187  13630.428837   -650.035805
PE02  14870.639038 -21633.453424 -13674.403073     69.926737
PE03   5508.865136 -16309.004047  24086.938194   -189.802852
PE04  15295.512202  19579.166344 -16080.376453   -326.229319
PE05  23233.870217  -3449.435801  18024.242760   -465.210316
PE07 -27281.825378 -11375.727002  -1434.660427   -229.151478
PE08 -15568.830691 -19362.070657  16088.879879   6321.754750
PE09  27397.393224  11130.718421   1511.009518   6374.586340
PE11  15944.861317  11721.799790 -22016.863420   5650.044240
PE12   7769.717517  27608.023989  -7289.603325   6291.338590
PE13 -15901.251882 -11820.764786  21991.026923    390.177640
PE14 -17896.161790   -343.880959  15707.344179   -648.131150
PE15  -8086.779829 -27432.476008   7637.582570    902.683927
PE18  20022.585755  -7653.345002 -24344.615636   -743.641428
PE19  -7526.366437  15254.847355 -24213.595583     -5.080785
PE21 -25515.786029  14104.895080  -5081.804459   -544.885221
PE24  21228.838158   1699.015211  20545.654623   5969.855420
PE25  25539.868997 -14061.999855   5156.255250   1738.249010
PE26 -14640.519669  10757.083148  23367.209920   4324.528360
PE27 -21061.385195  -1768.910030 -20715.731630    426.204549
PE30  -4382.561069 -16529.209658 -24166.883994   4699.599400
PE31   4279.015896  16559.365724  24165.459371   -466.596687
PE33  -4488.655256  27013.425405  11231.580117   -469.831302
PE36  14419.185237 -10775.952715 -23498.780482    685.777207
PC06  -8642.340229  24014.241886 -33174.533722    537.275325
PC07 -23541.570949  28125.837487  20522.481830    -11.750546
PC08 -12577.794260  38899.193464  10997.581422    168.111620
PC09   5725.174830  31363.596946 -27176.518939   -176.461669
PC10  -8580.483837  29031.278718  29343.577501     -0.110836
PC11 -18096.061784  -5209.232083  20620.477806    261.287334
PC12 -11777.926047 -25129.635422  -2393.042341    878.738556
PC13  -4843.917647  42005.685320  -1176.790583   -851.857165
PC14 -25338.141695  -7080.399657   9431.858787    527.585650
PC16  -5941.937441  25119.876858 -33270.832007   -888.721079
PJ01 -32742.645542  16894.002420 -15777.013587   -270.929143
PJ02 -27801.596333  31432.332377    780.623797     -1.297061
PJ03 -24758.644588  23812.561538  29538.116529      0.006591
EOF
